[{"OBJECT_NAME":"ONEWEB-0282","OBJECT_ID":"2021-060AK","EPOCH":"2025-10-10T05:14:32.550720","MEAN_MOTION":13.16592563,"ECCENTRICITY":0.00018284,"INCLINATION":87.8965,"RA_OF_ASC_NODE":278.5861,"ARG_OF_PERICENTER":94.1661,"MEAN_ANOMALY":265.9679,"EPHEMERIS_TYPE":0,"CLASSIFICATION_TYPE":"U","NORAD_CAT_ID":49000,"ELEMENT_SET_NO":999,"REV_AT_EPOCH":20671,"BSTAR":3.7085639e-5,"MEAN_MOTION_DOT":2.7e-7,"MEAN_MOTION_DDOT":0},{"OBJECT_NAME":"ONEWEB-0283","OBJECT_ID":"2021-060AL","EPOCH":"2025-10-10T06:48:01.004544","MEAN_MOTION":13.16593052,"ECCENTRICITY":0.00017555,"INCLINATION":87.8961,"RA_OF_ASC_NODE":278.574,"ARG_OF_PERICENTER":93.8249,"MEAN_ANOMALY":266.3083,"EPHEMERIS_TYPE":0,"CLASSIFICATION_TYPE":"U","NORAD_CAT_ID":49001,"ELEMENT_SET_NO":999,"REV_AT_EPOCH":20673,"BSTAR":0.00035461624,"MEAN_MOTION_DOT":1.48e-6,"MEAN_MOTION_DDOT":0},{"OBJECT_NAME":"ONEWEB-0284","OBJECT_ID":"2021-060AM","EPOCH":"2025-10-10T06:38:53.238048","MEAN_MOTION":13.16592019,"ECCENTRICITY":0.00022558,"INCLINATION":87.8976,"RA_OF_ASC_NODE":278.5593,"ARG_OF_PERICENTER":93.5161,"MEAN_ANOMALY":266.6228,"EPHEMERIS_TYPE":0,"CLASSIFICATION_TYPE":"U","NORAD_CAT_ID":49002,"ELEMENT_SET_NO":999,"REV_AT_EPOCH":20671,"BSTAR":0.00035830273,"MEAN_MOTION_DOT":1.5e-6,"MEAN_MOTION_DDOT":0},{"OBJECT_NAME":"ONEWEB-0285","OBJECT_ID":"2021-075A","EPOCH":"2025-10-09T09:25:13.285632","MEAN_MOTION":13.12443231,"ECCENTRICITY":0.0001756,"INCLINATION":87.895,"RA_OF_ASC_NODE":40.479,"ARG_OF_PERICENTER":100.8123,"MEAN_ANOMALY":259.3203,"EPHEMERIS_TYPE":0,"CLASSIFICATION_TYPE":"U","NORAD_CAT_ID":49075,"ELEMENT_SET_NO":999,"REV_AT_EPOCH":20231,"BSTAR":0.0012628,"MEAN_MOTION_DOT":4.67e-6,"MEAN_MOTION_DDOT":0},{"OBJECT_NAME":"ONEWEB-0286","OBJECT_ID":"2021-075B","EPOCH":"2025-10-10T06:56:30.018912","MEAN_MOTION":13.12442135,"ECCENTRICITY":0.00016891,"INCLINATION":87.8948,"RA_OF_ASC_NODE":40.3363,"ARG_OF_PERICENTER":93.7216,"MEAN_ANOMALY":266.4106,"EPHEMERIS_TYPE":0,"CLASSIFICATION_TYPE":"U","NORAD_CAT_ID":49076,"ELEMENT_SET_NO":999,"REV_AT_EPOCH":20178,"BSTAR":-0.00063958852,"MEAN_MOTION_DOT":-2.17e-6,"MEAN_MOTION_DDOT":0},{"OBJECT_NAME":"ONEWEB-0287","OBJECT_ID":"2021-075C","EPOCH":"2025-10-10T08:04:46.490016","MEAN_MOTION":13.17650165,"ECCENTRICITY":0.00017936,"INCLINATION":87.9097,"RA_OF_ASC_NODE":55.5486,"ARG_OF_PERICENTER":87.5641,"MEAN_ANOMALY":272.5696,"EPHEMERIS_TYPE":0,"CLASSIFICATION_TYPE":"U","NORAD_CAT_ID":49077,"ELEMENT_SET_NO":999,"REV_AT_EPOCH":20072,"BSTAR":0.00014734289,"MEAN_MOTION_DOT":7.0e-7,"MEAN_MOTION_DDOT":0},{"OBJECT_NAME":"ONEWEB-0288","OBJECT_ID":"2021-075D","EPOCH":"2025-10-10T06:21:39.746304","MEAN_MOTION":13.12442633,"ECCENTRICITY":0.00018507,"INCLINATION":87.8953,"RA_OF_ASC_NODE":40.3005,"ARG_OF_PERICENTER":98.277,"MEAN_ANOMALY":261.8569,"EPHEMERIS_TYPE":0,"CLASSIFICATION_TYPE":"U","NORAD_CAT_ID":49078,"ELEMENT_SET_NO":999,"REV_AT_EPOCH":20240,"BSTAR":-0.00015795554,"MEAN_MOTION_DOT":-4.4e-7,"MEAN_MOTION_DDOT":0},{"OBJECT_NAME":"ONEWEB-0289","OBJECT_ID":"2021-075E","EPOCH":"2025-10-09T07:29:35.521152","MEAN_MOTION":13.17647119,"ECCENTRICITY":0.0002058,"INCLINATION":87.9084,"RA_OF_ASC_NODE":55.7749,"ARG_OF_PERICENTER":103.7864,"MEAN_ANOMALY":256.3497,"EPHEMERIS_TYPE":0,"CLASSIFICATION_TYPE":"U","NORAD_CAT_ID":49079,"ELEMENT_SET_NO":999,"REV_AT_EPOCH":20116,"BSTAR":2.8573e-5,"MEAN_MOTION_DOT":2.4e-7,"MEAN_MOTION_DDOT":0},{"OBJECT_NAME":"ONEWEB-0290","OBJECT_ID":"2021-075F","EPOCH":"2025-10-09T19:36:22.212864","MEAN_MOTION":13.17649413,"ECCENTRICITY":0.00020975,"INCLINATION":87.9094,"RA_OF_ASC_NODE":55.6311,"ARG_OF_PERICENTER":112.2971,"MEAN_ANOMALY":247.8383,"EPHEMERIS_TYPE":0,"CLASSIFICATION_TYPE":"U","NORAD_CAT_ID":49080,"ELEMENT_SET_NO":999,"REV_AT_EPOCH":20064,"BSTAR":0.00010590622,"MEAN_MOTION_DOT":5.4e-7,"MEAN_MOTION_DDOT":0},{"OBJECT_NAME":"ONEWEB-0291","OBJECT_ID":"2021-075G","EPOCH":"2025-10-10T07:59:56.322528","MEAN_MOTION":13.17649787,"ECCENTRICITY":0.00020383,"INCLINATION":87.9098,"RA_OF_ASC_NODE":55.5336,"ARG_OF_PERICENTER":92.5966,"MEAN_ANOMALY":267.5399,"EPHEMERIS_TYPE":0,"CLASSIFICATION_TYPE":"U","NORAD_CAT_ID":49081,"ELEMENT_SET_NO":999,"REV_AT_EPOCH":20070,"BSTAR":0.00018143773,"MEAN_MOTION_DOT":8.3e-7,"MEAN_MOTION_DDOT":0},{"OBJECT_NAME":"ONEWEB-0293","OBJECT_ID":"2021-075H","EPOCH":"2025-10-09T10:44:12.653952","MEAN_MOTION":13.17649081,"ECCENTRICITY":0.000177,"INCLINATION":87.9088,"RA_OF_ASC_NODE":55.7366,"ARG_OF_PERICENTER":98.2265,"MEAN_ANOMALY":261.9067,"EPHEMERIS_TYPE":0,"CLASSIFICATION_TYPE":"U","NORAD_CAT_ID":49082,"ELEMENT_SET_NO":999,"REV_AT_EPOCH":20061,"BSTAR":-0.00015711,"MEAN_MOTION_DOT":-4.8e-7,"MEAN_MOTION_DDOT":0},{"OBJECT_NAME":"ONEWEB-0294","OBJECT_ID":"2021-075J","EPOCH":"2025-10-09T17:42:31.559328","MEAN_MOTION":13.12441692,"ECCENTRICITY":0.00021672,"INCLINATION":87.8952,"RA_OF_ASC_NODE":40.4057,"ARG_OF_PERICENTER":106.5184,"MEAN_ANOMALY":253.6182,"EPHEMERIS_TYPE":0,"CLASSIFICATION_TYPE":"U","NORAD_CAT_ID":49083,"ELEMENT_SET_NO":999,"REV_AT_EPOCH":20172,"BSTAR":-0.0010085498,"MEAN_MOTION_DOT":-3.5e-6,"MEAN_MOTION_DDOT":0},{"OBJECT_NAME":"ONEWEB-0295","OBJECT_ID":"2021-075K","EPOCH":"2025-10-09T19:49:43.127040","MEAN_MOTION":13.17650476,"ECCENTRICITY":0.00019859,"INCLINATION":87.9092,"RA_OF_ASC_NODE":55.6659,"ARG_OF_PERICENTER":90.201,"MEAN_ANOMALY":269.9349,"EPHEMERIS_TYPE":0,"CLASSIFICATION_TYPE":"U","NORAD_CAT_ID":49084,"ELEMENT_SET_NO":999,"REV_AT_EPOCH":20062,"BSTAR":9.8924574e-5,"MEAN_MOTION_DOT":5.1e-7,"MEAN_MOTION_DDOT":0},{"OBJECT_NAME":"ONEWEB-0296","OBJECT_ID":"2021-075L","EPOCH":"2025-10-10T07:52:46.632000","MEAN_MOTION":13.12443266,"ECCENTRICITY":0.00022329,"INCLINATION":87.895,"RA_OF_ASC_NODE":40.2935,"ARG_OF_PERICENTER":94.6528,"MEAN_ANOMALY":265.4856,"EPHEMERIS_TYPE":0,"CLASSIFICATION_TYPE":"U","NORAD_CAT_ID":49085,"ELEMENT_SET_NO":999,"REV_AT_EPOCH":20180,"BSTAR":0.00097174127,"MEAN_MOTION_DOT":3.62e-6,"MEAN_MOTION_DDOT":0},{"OBJECT_NAME":"ONEWEB-0297","OBJECT_ID":"2021-075M","EPOCH":"2025-10-10T06:47:20.832864","MEAN_MOTION":13.12442388,"ECCENTRICITY":0.00017902,"INCLINATION":87.8937,"RA_OF_ASC_NODE":40.338,"ARG_OF_PERICENTER":97.8136,"MEAN_ANOMALY":262.3196,"EPHEMERIS_TYPE":0,"CLASSIFICATION_TYPE":"U","NORAD_CAT_ID":49086,"ELEMENT_SET_NO":999,"REV_AT_EPOCH":20240,"BSTAR":-0.00086253631,"MEAN_MOTION_DOT":-2.98e-6,"MEAN_MOTION_DDOT":0},{"OBJECT_NAME":"ONEWEB-0298","OBJECT_ID":"2021-075N","EPOCH":"2025-10-09T10:49:16.201344","MEAN_MOTION":13.17648378,"ECCENTRICITY":0.0001642,"INCLINATION":87.9094,"RA_OF_ASC_NODE":55.7353,"ARG_OF_PERICENTER":95.3067,"MEAN_ANOMALY":264.8251,"EPHEMERIS_TYPE":0,"CLASSIFICATION_TYPE":"U","NORAD_CAT_ID":49087,"ELEMENT_SET_NO":999,"REV_AT_EPOCH":20060,"BSTAR":-0.00012428,"MEAN_MOTION_DOT":-3.5e-7,"MEAN_MOTION_DDOT":0},{"OBJECT_NAME":"ONEWEB-0299","OBJECT_ID":"2021-075P","EPOCH":"2025-10-09T07:12:46.795104","MEAN_MOTION":13.17647621,"ECCENTRICITY":0.0001748,"INCLINATION":87.9099,"RA_OF_ASC_NODE":55.7233,"ARG_OF_PERICENTER":91.2613,"MEAN_ANOMALY":268.8719,"EPHEMERIS_TYPE":0,"CLASSIFICATION_TYPE":"U","NORAD_CAT_ID":49088,"ELEMENT_SET_NO":999,"REV_AT_EPOCH":20056,"BSTAR":0.00025966,"MEAN_MOTION_DOT":1.14e-6,"MEAN_MOTION_DDOT":0}]
