ONEWEB-0282             
1 49000U 21060AK  25283.21843230  .00000027  00000+0  37086-4 0  9991
2 49000  87.8965 278.5861 0001828  94.1661 265.9679 13.16592563206712
ONEWEB-0283             
1 49001U 21060AL  25283.28334496  .00000148  00000+0  35462-3 0  9997
2 49001  87.8961 278.5740 0001755  93.8249 266.3083 13.16593052206732
ONEWEB-0284             
1 49002U 21060AM  25283.27700507  .00000150  00000+0  35830-3 0  9999
2 49002  87.8976 278.5593 0002255  93.5161 266.6228 13.16592019206715
ONEWEB-0285             
1 49075U 21075A   25282.39251488  .00000467  00000+0  12628-2 0  9996
2 49075  87.8950  40.4790 0001756 100.8123 259.3203 13.12443231202318
ONEWEB-0286             
1 49076U 21075B   25283.28923633 -.00000217  00000+0 -63959-3 0  9993
2 49076  87.8948  40.3363 0001689  93.7216 266.4106 13.12442135201782
ONEWEB-0287             
1 49077U 21075C   25283.33664919  .00000070  00000+0  14734-3 0  9991
2 49077  87.9097  55.5486 0001793  87.5641 272.5696 13.17650165200726
ONEWEB-0288             
1 49078U 21075D   25283.26504336 -.00000044  00000+0 -15796-3 0  9992
2 49078  87.8953  40.3005 0001850  98.2770 261.8569 13.12442633202403
ONEWEB-0289             
1 49079U 21075E   25282.31221668  .00000024  00000+0  28573-4 0  9996
2 49079  87.9084  55.7749 0002058 103.7864 256.3497 13.17647119201164
ONEWEB-0290             
1 49080U 21075F   25282.81692376  .00000054  00000+0  10591-3 0  9994
2 49080  87.9094  55.6311 0002097 112.2971 247.8383 13.17649413200648
ONEWEB-0291             
1 49081U 21075G   25283.33329077  .00000083  00000+0  18144-3 0  9992
2 49081  87.9098  55.5336 0002038  92.5966 267.5399 13.17649787200705
ONEWEB-0293             
1 49082U 21075H   25282.44736868 -.00000048  00000+0 -15711-3 0  9994
2 49082  87.9088  55.7366 0001770  98.2265 261.9067 13.17649081200614
ONEWEB-0294             
1 49083U 21075J   25282.73786527 -.00000350  00000+0 -10085-2 0  9998
2 49083  87.8952  40.4057 0002167 106.5184 253.6182 13.12441692201728
ONEWEB-0295             
1 49084U 21075K   25282.82619360  .00000051  00000+0  98925-4 0  9996
2 49084  87.9092  55.6659 0001985  90.2010 269.9349 13.17650476200625
ONEWEB-0296             
1 49085U 21075L   25283.32831750  .00000362  00000+0  97174-3 0  9991
2 49085  87.8950  40.2935 0002232  94.6528 265.4856 13.12443266201800
ONEWEB-0297             
1 49086U 21075M   25283.28288001 -.00000298  00000+0 -86254-3 0  9999
2 49086  87.8937  40.3380 0001790  97.8136 262.3196 13.12442388202403
ONEWEB-0298             
1 49087U 21075N   25282.45088196 -.00000035  00000+0 -12428-3 0  9992
2 49087  87.9094  55.7353 0001642  95.3067 264.8251 13.17648378200602
ONEWEB-0299             
1 49088U 21075P   25282.30054161  .00000114  00000+0  25966-3 0  9999
2 49088  87.9099  55.7233 0001748  91.2613 268.8719 13.17647621200562
